UWE-3                   
1 39446U 13066AG  20070.94129640 +.00000162 +00000-0 +28263-4 0  9990
2 39446 097.5938 066.1256 0068429 271.3071 088.0302 14.78505253338011